25883,GLOBALSTAR M024,1999,129.71,-1.0,-,52.0,Inactive,0,MEO,USA,Globalstar,Unknown,Unknown,Delta,1 25883U 99043A   23307.38984845  .00000009  00000+0  26096-2 0  9998,2 25883  52.0024 275.9049 0000909 197.4228 333.3265 11.10157208 49136,11.10157208,9.09e-05,MEO
25884,GLOBALSTAR M027,1999,130.39,-1.0,-,52.02,Inactive,0,MEO,USA,Globalstar,Unknown,Unknown,Delta,1 25884U 99043B   23307.36235746 -.00000015  00000+0  18403-2 0  9997,2 25884  52.0238 337.1890 0021467 115.6280 244.6734 11.04365952 75854,11.04365952,0.0021467,MEO
25885,GLOBALSTAR M054,1999,126.4,-1.0,-,52.01,Inactive,0,LEO,USA,Globalstar,Unknown,Unknown,Delta,1 25885U 99043C   23307.14542875 -.00000111  00000+0 -10200-2 0  9993,2 25885  52.0128 204.3191 0003704 227.0854 282.0770 11.39202770 51576,11.3920277,0.0003704,LEO
25886,GLOBALSTAR M053,1999,127.7,-1.0,-,51.99,Inactive,0,LEO,USA,Globalstar,Unknown,Unknown,Delta,1 25886U 99043D   23307.46236432 -.00000078  00000+0 -27096-3 0  9992,2 25886  51.9950 117.8276 0004038 143.6211 228.9710 11.27652096 52695,11.27652096,0.0004038,LEO
25907,GLOBALSTAR M058,1999,120.69,-1.0,-,51.99,Inactive,0,LEO,Kazakhstan,Globalstar,Unknown,Unknown,Soyuz,1 25907U 99049A   23307.54701227 -.00000044  00000+0  54788-3 0  9990,2 25907  51.9937 248.9653 0001846 199.8642 160.2121 11.93168154 82129,11.93168154,0.0001846,LEO
25908,GLOBALSTAR M050,1999,119.26,-1.0,-,52.0,Inactive,0,LEO,Kazakhstan,Globalstar,Unknown,Unknown,Soyuz,1 25908U 99049B   23307.43074247 -.00000059  00000+0  33379-3 0  9993,2 25908  51.9999 301.1619 0008867 294.9235 232.8830 12.07424094 76701,12.07424094,0.0008867,LEO
25909,GLOBALSTAR M033,1999,118.01,-1.0,-,51.99,Inactive,0,LEO,Kazakhstan,Globalstar,Unknown,Unknown,Soyuz,1 25909U 99049C   23307.46567917 -.00000146  00000+0 -52470-3 0  9999,2 25909  51.9909 213.7679 0011811 133.7798 226.4028 12.20259422463506,12.20259422,0.0011811,LEO
25910,GLOBALSTAR M055,1999,117.13,-1.0,-,52.0,Inactive,0,LEO,Kazakhstan,Globalstar,Unknown,Unknown,Soyuz,1 25910U 99049D   23307.86787610 -.00000073  00000+0  17835-3 0  9993,2 25910  52.0017 252.1579 0007260 348.8393  11.2297 12.29389871 95778,12.29389871,0.000726,LEO
